#dP2022  6 25  0  0  0.00000000      96 __u+U ITR00 FIT  IAC
## 2215 518400.00000000   900.00000000 59755 0.0000000000000
+  115   C06C07C08C09C10C11C12C13C14C16C19C20C21C22C23C24C25
+        C26C27C28C29C30C32C33C34C35C36C37C38C39C40C41C42C43
+        C44C45C46E01E02E03E04E05E07E08E09E10E11E12E13E14E15
+        E18E19E21E24E25E26E27E30E31E33E34E36G01G02G03G04G05
+        G06G07G08G10G11G12G13G14G15G16G17G18G19G20G21G22G23
+        G24G25G26G27G28G29G30G31G32J02J03R01R02R03R04R05R07
+        R08R09R11R12R13R14R15R17R18R19R20R21R24  0  0  0  0
++         6 11  8  7 10  6  7  9  7  8  6  7  7  6  6  6  7
++         6  6  7  7  7  7  6  7  7  7  5  8  9  8  5  7  6
++         6  8  7  7  6  6  6  6  6  6  6  8  7  6  5  5  7
++         7  5  6  6  7  6  6  6  6  6  6  6  5  6  5  6  8
++         6  6  5  6  6  6  6  7  8  7  6  3  6  7  6  5  6
++         7  6  5  6  6  6  6  5  6  7  5  7  6  6  6  8  7
++         6  6  7  6  5  6  6  6  7  8  5  6  6  0  0  0  0
%c M  cc GPS ccc cccc cccc cccc cccc ccccc ccccc ccccc ccccc
%c cc cc ccc ccc cccc cccc cccc cccc ccccc ccccc ccccc ccccc
%f  0.0000000  0.000000000  0.00000000000  0.000000000000000
%f  0.0000000  0.000000000  0.00000000000  0.000000000000000
%i    0    0    0    0      0      0      0      0         0
%i    0    0    0    0      0      0      0      0         0
/* INFORMATION & ANALYSIS CENTER (IAC)      ULTRA-RAPID DATA
/* S/V CLOCKS ARE ALIGNED TO GNSS TIME                      
/* G:C1WC2W R:C1PC2P E:C1XC5X C:C2IC6I J:C1CC2S             
/* PCV:IGS14_2196 OL/AL:FES2004  NONE     YN ORB:CoN CLK:CoN
*  2022 06 25 14  0  0.00000000
PC06    314.009155  32496.131705  26999.949077    262.443170
PC07 -13831.471634  27912.722717 -28484.745662   -345.522175
PC08 -12970.739654  39905.232100   3327.185648    377.955424
PC09   5284.488104  35712.545926  22559.255233   -917.007988
PC10  -6958.655930  27984.019459 -30602.307716    123.705397
PC11  -8799.469439  13008.563798 -23006.160688    436.088479
PC12 -20068.490137  -4034.455091 -18946.017156   -591.248687
PC13  -8490.260667  40312.224043   8393.484412      6.009769
PC14 -19375.671503  14237.461832  14238.588142    515.819510
PC16  -2187.111117  30518.292659  29309.874029    141.181092
PC19   9847.592896 -16371.847682 -20304.971104    -75.624862
PC20  24698.732283 -10567.913622  -7470.005348   -965.169854
PC21 -25694.237263  -2020.010090 -10718.746182   -553.803813
PC22 -11363.232139 -12971.742502 -21944.825547   -963.467199
PC23   4758.005439  22359.886414 -15995.129675   -937.463130
PC24 -17245.977064  14414.759809  16523.449075   -969.149674
PC25  -7667.237614  26816.134244   -554.202239   -716.758520
PC26 -15794.495305  -3911.863466  22662.165109    718.484053
PC27  21929.693948  11966.229216  12424.255771    744.461527
PC28  15785.177694  22591.795134  -4366.661278     82.670747
PC29   -557.457313 -20109.440515  19328.513615    573.169041
PC30  15895.171599  -5666.535669  22217.361875    500.345032
PC32  25652.965524   1907.178449  10814.345472   -971.495265
PC33  -9873.697846  16467.430407  20264.671523    -16.686137
PC34 -15195.835731   6699.952169 -22439.141618   -372.939765
PC35 -15831.896351 -22308.096053   5420.803809    336.906428
PC36   8617.671079 -26542.545597     67.246642   -970.250650
PC37  15279.441071   5554.817956 -22660.885345   -911.207751
PC38 -16641.733499  38388.898611  -4574.588386      5.663992
PC39  -5938.189802  26863.882460  32038.535411     34.995849
PC40 -21236.270088  21738.640406 -29331.360874    280.327035
PC41  10845.011680  13219.401891  22104.651910    -29.853393
PC42 -25211.751725  10096.272836   6520.816347   -957.598038
PC43   -256.713573  19839.814680 -19644.059219   -916.126025
PC44 -22399.924504 -11237.101252 -12261.564080    703.734543
PC45  -4914.232004 -22135.378183  16286.239916    792.635129
PC46  16855.855672 -15981.388391 -15483.748077   -398.000839
PE01   4824.547659  17222.665144 -23581.506305   -502.986190
PE02  -4986.641660 -17120.245380  23628.964514    307.931826
PE03 -16982.679021 -17700.893087 -16573.917205   -572.477250
PE04  28276.945836   8734.559531   -411.276419  -1057.708304
PE05   4562.067132 -16445.718828 -24176.644935   -168.860718
PE07 -23119.663496   5655.691024  17616.456617   -681.728796
PE08 -28356.149140  -8496.684185    640.497501   -552.714812
PE09  23022.819262  -5654.240316 -17705.195803   -565.702136
PE10  16357.459178    188.705487  24654.048970   -522.063177
PE11  13222.844424 -11669.233136  23753.024337   3229.652238
PE12  16837.780842  11398.487605  21508.125913    -29.362425
PE13 -13430.087135  10928.237278 -24013.083013    429.483731
PE14 -22044.156911 -17300.575469   6290.590771  -1797.521232
PE15 -16792.333871 -11513.303730 -21486.300552    737.205087
PE18  10308.299394  20839.582050 -16190.563921  -1288.160203
PE19  14595.179952  18109.823748  18318.788294  -5272.456923
PE21 -12553.426419  23380.877118 -13112.219785   -742.240609
PE24  24241.915489 -15669.672436  -6607.431350   -690.155506
PE25  12779.946765 -23384.343152  12892.751983   -578.842123
PE26  -1746.916198  27193.424418 -11562.212052  -1303.675029
PE27 -23914.812574  16537.054293   5543.461505   -330.248028
PE30 -20635.493314   -954.285324  21191.249894   -621.199495
PE31  21100.171349    -40.888037 -20749.348530   -498.858070
PE33  10230.137903  27057.265993   6294.952585   -455.292664
PE34 -10395.696827 -26948.418305  -6503.570560   -523.920854
PE36   2211.365374 -26770.976192  12419.909658   -393.157402
PG01  13323.851911  -7891.925775  21213.194266    334.063629
PG02 -14057.741711 -15052.962281 -16032.409664   -652.304243
PG03  22929.264696 -12023.640330   5526.524518   -289.299320
PG04  21397.776115  -1767.322452 -15681.062275   -153.189335
PG05 -20236.097788    515.749272 -17442.838564    -86.817484
PG06  -6056.600979 -25248.605958  -5336.370647    358.275097
PG07   6423.134811 -22291.360391 -12057.042097    321.121431
PG08  24943.583800   3799.579835   8811.364087    -73.595107
PG10  -4142.538764  18598.610301  18522.139210   -468.471323
PG11 -12416.806872 -16587.906723 -16633.162489    -12.970684
PG12 -23747.552758   8145.677443   8237.910503   -236.600559
PG13 -23053.293666 -13322.417387   1152.064351    336.493270
PG14   6169.706103 -19044.933861  17406.532610   -111.917690
PG15 -25254.635439  -1122.970481   8222.704132    -50.441512
PG16  16991.212745   5824.869348 -19985.455341   -511.384633
PG17  -4220.885366 -17401.770677  20030.176698    629.325788
PG18  -6782.141825  22279.370251 -12672.034969    131.999940
PG19 -12934.508838 -18425.110451  14015.741645    175.371739
PG20 -12402.384666  -9553.110912 -21439.396006    508.477411
PG21  16021.439545   3031.543938  21704.266476    161.287963
PG22  14950.028900  18308.324980  12707.842925    281.696507
PG23 -14028.977105  19892.019572  10486.117465    -29.878567
PG24 -15215.618943   3703.791524  21138.580570    212.623045
PG25 -19134.894234  17786.930757  -4180.399988    341.649717
PG26   8437.879752  13391.946529 -21399.377538    214.513461
PG27  23117.726937  13035.239681  -3744.488051    218.091261
PG28  -2555.612764 -15845.518966  21708.452805    331.156812
PG29 -12994.575064   9225.573858 -21313.813812   -527.496722
PG30    -93.047136 -26238.014741  -3027.536212   -532.388965
PG31   7621.332426  23941.266512  -7982.367560   -183.218653
PG32   7911.002907  17606.743994  18473.465829   -160.034577
PJ02 -35348.247733  23100.936089   4198.224788     -0.993452
PJ03 -18687.376682  24055.758134 -24574.767588     -3.077885
PR01   8079.421476  10152.262498  21962.782210     10.475843
PR02  23632.346542   3777.461049   8957.980165    522.291088
PR03  23632.982740  -4617.695868  -8448.350753     59.077203
PR04  10495.197170 -10011.140642 -20954.162208    148.166040
PR05  -8345.834555 -10064.104937 -21884.165815     95.224860
PR07 -23215.746891   4983.318556   9301.595183     36.938617
PR08 -10250.716417  10224.419749  21053.863824    -65.880198
PR09 -11306.365622  -2598.549038  22742.661726     62.396040
PR11 -11285.108118  22853.246216  -1218.194645     35.168876
PR12    -98.910034  18229.957458 -17806.037554     19.034316
PR13  10353.511197   3967.348174 -22982.549205    -23.951502
PR14  15460.674032 -14199.973572 -14460.603779     25.116222
PR15  11096.235081 -22861.746366   2194.821019     95.120863
PR17  11080.341889  -1795.111833  22901.876934    537.985576
PR18    484.675562 -16357.545202  19554.895941    121.467727
PR19  -9146.123757 -22750.719465   7032.358667   -194.010715
PR20 -15333.723335 -15606.615481 -13080.429033    -73.316653
PR21 -10268.519647   3136.243626 -23147.665795   -312.299509
PR24  15977.796040  14560.709991  13537.626668    100.430059
EOF
